IRIDIUM 155             
1 43573U 18061E   25082.89484496  .00000709  00000+0  24623-3 0  9992
2 43573  86.3935 244.7966 0001942  85.3473 274.7945 14.34217787348818
IRIDIUM 154             
1 43574U 18061F   25082.87581580  .00000130  00000+0  39212-4 0  9992
2 43574  86.3935 244.9164 0002088  93.8463 266.2972 14.34217098348862
IRIDIUM 163             
1 43575U 18061G   25082.92655707  .00000637  00000+0  22052-3 0  9997
2 43575  86.3935 244.8239 0002184  90.9183 269.2263 14.34217459348844
IRIDIUM 156             
1 43576U 18061H   25082.97095209  .00000617  00000+0  21336-3 0  9990
2 43576  86.3937 244.8124 0001792  84.7452 275.3948 14.34219831348837
IRIDIUM 164             
1 43577U 18061J   25082.95192495  .00000725  00000+0  25193-3 0  9999
2 43577  86.3940 244.8535 0002023  99.2629 260.8796 14.34219759348887
IRIDIUM 159             
1 43578U 18061K   25082.92021292  .00000845  00000+0  29451-3 0  9997
2 43578  86.3937 244.8127 0002242  96.2862 263.8590 14.34219545348844
IRIDIUM 180             
1 43922U 19002A   25082.84993969  .00001088  00000+0  38142-3 0  9993
2 43922  86.4048 181.7989 0002206  94.4150 265.7298 14.34219424324482
IRIDIUM 176             
1 43923U 19002B   25082.80498389  .00004071  00000+0  64159-3 0  9998
2 43923  86.6168 181.8182 0002927  89.7198 270.4355 14.72245718332981
IRIDIUM 168             
1 43924U 19002C   25082.84359596  .00001104  00000+0  38707-3 0  9993
2 43924  86.4050 181.8661 0002175  96.4899 263.6545 14.34218778324429
IRIDIUM 173             
1 43925U 19002D   25082.83091108  .00000801  00000+0  27894-3 0  9993
2 43925  86.4048 181.7790 0002158  91.0627 269.0816 14.34216886324407
IRIDIUM 169             
1 43926U 19002E   25082.87874441  .00001376  00000+0  44299-3 0  9993
2 43926  86.4268 213.3260 0002767  59.5843 300.5628 14.38644513325488
IRIDIUM 172             
1 43927U 19002F   25082.82458460  .00001071  00000+0  37531-3 0  9991
2 43927  86.4048 181.7882 0002454  97.6982 262.4493 14.34222804324412
IRIDIUM 175             
1 43928U 19002G   25082.86772807  .00003204  00000+0  50392-3 0  9990
2 43928  86.1515 139.1929 0001522  77.4734 282.6653 14.72260291332981
IRIDIUM 171             
1 43929U 19002H   25083.01484414  .00000227  00000+0  74107-4 0  9996
2 43929  86.4057 181.9650 0001834 105.3612 254.7786 14.34217929324430
IRIDIUM 170             
1 43930U 19002J   25082.81116682  .00004010  00000+0  63187-3 0  9993
2 43930  86.6168 181.8206 0001976  94.1153 266.0290 14.72249466332994
IRIDIUM 167             
1 43931U 19002K   25082.79919662  .00000231  00000+0  75454-4 0  9992
2 43931  86.4046 181.8173 0001751  93.2941 266.8455 14.34217723324404
IRIDIUM 181             
1 56726U 23068S   25082.88133167  .00000590  00000+0  16911-3 0  9993
2 56726  86.4475 244.8499 0001622  97.4216 262.7169 14.43323581 97487
IRIDIUM 177             
1 56727U 23068T   25082.75787381  .00005632  00000+0  73804-3 0  9999
2 56727  86.2036 182.6465 0001639 105.2281 254.9121 14.80199347 99732
IRIDIUM 174             
1 56728U 23068U   25082.75243356  .00005637  00000+0  73820-3 0  9992
2 56728  86.2041 182.7744 0002547 110.3750 249.7745 14.80226985 99730
IRIDIUM 178             
1 56729U 23068V   25082.88211373  .00005416  00000+0  70989-3 0  9999
2 56729  86.6580 213.4032 0002021 103.7555 256.3892 14.80186140 99758
IRIDIUM 179             
1 56730U 23068W   25082.87676090  .00005054  00000+0  66106-3 0  9995
2 56730  86.6802 221.0243 0002117  92.0810 268.0654 14.80261240 99757
